0 FENGYUN 1C DEB
1 31694U 99025CDC 13283.45323175  .00015124  00000-0  18080-2 0  5476
2 31694 101.0464 004.2263 0201460 208.1279 150.9276 14.70880444343415
0 FENGYUN 1C DEB
1 31694U 99025CDC 13283.99742126  .00019898  00000-0  23868-2 0  5489
2 31694 101.0485 004.9654 0199138 206.2776 153.1086 14.70941865343495
0 FENGYUN 1C DEB
1 31694U 99025CDC 13284.06538896  .00020099  00000-0  24040-2 0  5494
2 31694 101.0497 005.0573 0200001 205.8841 153.2465 14.70946405343509
0 FENGYUN 1C DEB
1 31694U 99025CDC 13285.42571714  .00025325  00000-0  29109-2 0  5523
2 31694 101.0621 006.9114 0210970 201.1833 158.0604 14.71045532343707
0 FENGYUN 1C DEB
1 31694U 99025CDC 13286.03786603  .00026850  00000-0  31186-2 0  5539
2 31694 101.0600 007.7419 0207332 199.2009 160.1146 14.71086684343798
0 FENGYUN 1C DEB
1 31694U 99025CDC 13286.44595875  .00027990  00000-0  32415-2 0  5546
2 31694 101.0598 008.2902 0207907 198.3086 161.1065 14.71116450343853
0 FENGYUN 1C DEB
1 31694U 99025CDC 13289.03036149  .00027807  00000-0  32215-2 0  5554
2 31694 101.0584 011.7892 0206658 191.0486 168.5984 14.71259654344239
0 FENGYUN 1C DEB
1 31694U 99025CDC 13290.05045660  .00027873  00000-0  32171-2 0  5561
2 31694 101.0599 013.1777 0207322 187.9741 171.8450 14.71318565344388
0 FENGYUN 1C DEB
1 31694U 99025CDC 13291.00250174  .00029862  00000-0  34352-2 0  5579
2 31694 101.0591 014.4673 0207633 185.2781 174.7355 14.71388803344523
0 FENGYUN 1C DEB
1 31694U 99025CDC 13291.47848727  .00030242  00000-0  34751-2 0  5585
2 31694 101.0580 015.1107 0207684 184.1741 175.8030 14.71420395344593
0 FENGYUN 1C DEB
1 31694U 99025CDC 13293.04243538  .00032174  00000-0  37183-2 0  5598
2 31694 101.0572 017.2306 0204912 179.6728 180.5258 14.71530476344826
0 FENGYUN 1C DEB
1 31694U 99025CDC 13295.08218473  .00029570  00000-0  34247-2 0  5600
2 31694 101.0572 019.9923 0203560 173.9892 186.1985 14.71638016345129
0 FENGYUN 1C DEB
1 31694U 99025CDC 13296.03406232  .00028957  00000-0  33509-2 0  5617
2 31694 101.0571 021.2826 0203476 171.3112 189.0819 14.71686294345263
